{
  "_comment": "Zonas de cobertura ISAIR - San José, Entre Ríos, Argentina",
  "_instrucciones": "Editá los polígonos en https://geojson.io para ajustar a la cobertura real.",
  "type": "FeatureCollection",
  "features": [
    {
      "type": "Feature",
      "properties": {
        "zona": "fibra",
        "nombre": "Zona Fibra Óptica",
        "descripcion": "Fibra Óptica - San José, Entre Ríos"
      },
      "geometry": {
        "type": "Polygon",
        "coordinates": [
          [
            [
              -58.21852684020997,
              -32.20851643891241
            ],
            [
              -58.21699261665345,
              -32.20787191156082
            ],
            [
              -58.21657419204712,
              -32.20867076168508
            ],
            [
              -58.21832299232483,
              -32.20921088932742
            ],
            [
              -58.218596577644355,
              -32.208520977821216
            ],
            [
              -58.21852684020997,
              -32.20851643891241
            ]
          ]
        ]
      }
    },
    {
      "type": "Feature",
      "properties": {
        "zona": "fibra",
        "nombre": "Zona Fibra Óptica",
        "descripcion": "Fibra Óptica - San José, Entre Ríos"
      },
      "geometry": {
        "type": "Polygon",
        "coordinates": [
          [
            [
              -58.216710984706886,
              -32.208262259657204
            ],
            [
              -58.216912150383,
              -32.20777659374794
            ],
            [
              -58.21650445461274,
              -32.207654042127444
            ],
            [
              -58.21628719568253,
              -32.20757461043337
            ],
            [
              -58.21618527173997,
              -32.20754737669372
            ],
            [
              -58.21613162755967,
              -32.20754056825753
            ],
            [
              -58.215699791908264,
              -32.20843927742788
            ],
            [
              -58.21650445461274,
              -32.20871615068604
            ],
            [
              -58.216710984706886,
              -32.208262259657204
            ]
          ]
        ]
      }
    },
    {
      "type": "Feature",
      "properties": {
        "zona": "fibra",
        "nombre": "Zona Fibra Óptica",
        "descripcion": "Fibra Óptica - San José, Entre Ríos"
      },
      "geometry": {
        "type": "Polygon",
        "coordinates": [
          [
            [
              -58.218076229095466,
              -32.207263691420835
            ],
            [
              -58.21715354919434,
              -32.20697319678453
            ],
            [
              -58.216826319694526,
              -32.207667658982324
            ],
            [
              -58.21779191493988,
              -32.207985385017366
            ],
            [
              -58.218076229095466,
              -32.207263691420835
            ]
          ]
        ]
      }
    }
  ]
}